ONEWEB-0410             
1 51622U 22012A   23332.55613977 -.00000166  00000+0 -46137-3 0  9997
2 51622  87.9163 191.0576 0003205  69.6749 290.4726 13.17652563 91012
ONEWEB-0411             
1 51623U 22012B   23332.60440954  .00000688  00000+0  19346-2 0  9995
2 51623  87.8930 221.2633 0001602  84.9691 275.1619 13.10376088 87282
ONEWEB-0415             
1 51624U 22012C   23332.60117541 -.00000291  00000+0 -87112-3 0  9998
2 51624  87.8933 221.2926 0001990  73.7252 286.4094 13.10380607 87284
ONEWEB-0416             
1 51625U 22012D   23332.61255196  .00000661  00000+0  18566-2 0  9994
2 51625  87.8929 221.2765 0001578  74.0006 286.1295 13.10375941 87324
ONEWEB-0422             
1 51626U 22012E   23332.56457531 -.00000618  00000+0 -16256-2 0  9994
2 51626  87.9158 191.0473 0001438  53.9011 306.2254 13.17652793 91129
ONEWEB-0423             
1 51627U 22012F   23332.55826731  .00000510  00000+0  12805-2 0  9991
2 51627  87.9222 191.0464 0002873  77.9100 282.2353 13.17654040 91019
ONEWEB-0425             
1 51628U 22012G   23332.62228256  .00000415  00000+0  11521-2 0  9996
2 51628  87.8922 221.2649 0002061  57.9242 302.2085 13.10371605 87321
ONEWEB-0428             
1 51629U 22012H   23332.60278410  .00000589  00000+0  16504-2 0  9990
2 51629  87.8928 221.2808 0001200  78.5630 281.5632 13.10377391 87289
